NORAD_CAT_ID,OBJECT_NAME,OBJECT_TYPE,EPOCH,MEAN_MOTION,ECCENTRICITY,INCLINATION,RA_OF_ASC_NODE,ARG_OF_PERICENTER,MEAN_ANOMALY,BSTAR,MEAN_MOTION_DOT,MEAN_MOTION_DDOT,TLE_LINE0,TLE_LINE1,TLE_LINE2,SEMIMAJOR_AXIS,PERIOD,APOGEE,PERIGEE,DECAYED
52373.0,STARLINK-3550,PAYLOAD,2022-06-20 14:00:01,15.73228057,0.0003389,53.2134,180.3938,11.1912,238.4096,-0.00048939,-0.00068853,0.0,0 STARLINK-3550,1 52373U 22045AU  22171.58334491 -.00068853  00000-0 -48939-3 0  9991,2 52373  53.2134 180.3938 0003389  11.1912 238.4096 15.73228057  1306,6727.815,91.532,351.96,347.4,0.0
52373.0,STARLINK-3550,PAYLOAD,2022-06-20 22:00:00,15.73171433,0.000312,53.2136,178.7424,12.2526,326.2833,0.00032299,0.00044904,0.0,0 STARLINK-3550,1 52373U 22045AU  22171.91667824  .00044904  00000-0  32299-3 0  9998,2 52373  53.2136 178.7424 0003120  12.2526 326.2833 15.73171433  1305,6727.977,91.535,351.941,347.742,0.0
52373.0,STARLINK-3550,PAYLOAD,2022-06-21 14:00:01,15.73000977,0.000304,53.2161,175.442,9.3949,147.0649,0.0020228,0.0029085,0.0,0 STARLINK-3550,1 52373U 22045AU  22172.58334491  .00290850  00000-0  20228-2 0  9994,2 52373  53.2161 175.4420 0003040   9.3949 147.0649 15.73000977 10847,6728.4630000000025,91.545,352.37300000000016,348.282,0.0
52373.0,STARLINK-3550,PAYLOAD,2022-06-21 22:00:00,15.732165099999998,0.0003148,53.214,173.7936,12.3679,233.0092,-6.881e-05,-0.00010278,0.0,0 STARLINK-3550,1 52373U 22045AU  22172.91667824 -.00010278  00000-0 -68810-4 0  9997,2 52373  53.2140 173.7936 0003148  12.3679 233.0092 15.73216510  1301,6727.848000000001,91.532,351.831,347.595,0.0
52373.0,STARLINK-3550,PAYLOAD,2022-06-22 06:00:00,15.73202092,0.0003401,53.2139,172.1459,15.5188,318.8016,0.00013398,0.00018227,0.0,0 STARLINK-3550,1 52373U 22045AU  22173.25001157  .00018227  00000-0  13398-3 0  9996,2 52373  53.2139 172.1459 0003401  15.5188 318.8016 15.73202092 10942,6727.889,91.533,352.042,347.466,0.0
52373.0,STARLINK-3550,PAYLOAD,2022-06-22 14:00:01,15.73256216,0.0003382,53.2132,170.4962,12.8732,50.3806,-0.00058965,-0.00082796,0.0,0 STARLINK-3550,1 52373U 22045AU  22173.58334491 -.00082796  00000-0 -58965-3 0  9995,2 52373  53.2132 170.4962 0003382  12.8732  50.3806 15.73256216  1300,6727.735,91.53,351.875,347.325,0.0
52373.0,STARLINK-3550,PAYLOAD,2022-06-22 22:00:00,15.73196639,0.000303,53.2133,168.8449,11.0699,141.1496,-0.00017894,-0.00025662,0.0,0 STARLINK-3550,1 52373U 22045AU  22173.91667824 -.00025662  00000-0 -17894-3 0  9996,2 52373  53.2133 168.8449 0003030  11.0699 141.1496 15.73196639 11054,6727.905,91.533,351.80800000000005,347.731,0.0
52373.0,STARLINK-3550,PAYLOAD,2022-06-23 14:00:01,15.73219703,0.0003269,53.2134,165.5475,7.8467,322.1652,-0.00013945,-0.0002017,0.0,0 STARLINK-3550,1 52373U 22045AU  22174.58334491 -.00020170  00000-0 -13945-3 0  9993,2 52373  53.2134 165.5475 0003269   7.8467 322.1652 15.73219703 11152,6727.839,91.532,351.903,347.505,0.0
52373.0,STARLINK-3550,PAYLOAD,2022-06-23 22:00:00,15.73174292,0.0003036,53.2138,163.8961,8.6739,50.2865,0.00018716,0.00025701,0.0,0 STARLINK-3550,1 52373U 22045AU  22174.91667824  .00025701  00000-0  18716-3 0  9993,2 52373  53.2138 163.8961 0003036   8.6739  50.2865 15.73174292  1304,6727.968000000003,91.535,351.876,347.791,0.0
52373.0,STARLINK-3550,PAYLOAD,2022-06-24 14:00:01,15.73229308,0.0003253999999999,53.2129,160.5985,7.7668,228.9958,-0.00020884,-0.00029874,0.0,0 STARLINK-3550,1 52373U 22045AU  22175.58334491 -.00029874  00000-0 -20884-3 0  9994,2 52373  53.2129 160.5985 0003254   7.7668 228.9958 15.73229308  1303,6727.812,91.531,351.866,347.487,0.0
52373.0,STARLINK-3550,PAYLOAD,2022-06-24 22:00:01,15.73125298,0.0003273,53.2164,158.9439,10.7724,315.0145,0.00086869,0.00122718,0.0,0 STARLINK-3550,1 52373U 22045AU  22175.91668981  .00122718  00000-0  86869-3 0  9999,2 52373  53.2164 158.9439 0003273  10.7724 315.0145 15.73125298 11361,6728.108,91.538,352.175,347.771,0.0
52373.0,STARLINK-3550,PAYLOAD,2022-06-25 14:00:01,15.73243017,0.0003223,53.2132,155.6495,7.8082,135.8322,-6.971e-05,-0.00010416,0.0,0 STARLINK-3550,1 52373U 22045AU  22176.58334491 -.00010416  00000-0 -69710-4 0  9999,2 52373  53.2132 155.6495 0003223   7.8082 135.8322 15.73243017 11478,6727.773,91.531,351.806,347.469,0.0
52373.0,STARLINK-3550,PAYLOAD,2022-06-25 22:00:00,15.73246513,0.0003087,53.2137,153.9983,12.5769,220.0495,-0.00010938,-0.0001598,0.0,0 STARLINK-3550,1 52373U 22045AU  22176.91667824 -.00015980  00000-0 -10938-3 0  9993,2 52373  53.2137 153.9983 0003087  12.5769 220.0495 15.73246513  1302,6727.763000000001,91.53,351.704,347.551,0.0
52373.0,STARLINK-3550,PAYLOAD,2022-06-26 14:00:01,15.732468,0.0003193,53.2131,150.7001,8.9407,41.6989,-0.00060876,-0.00085394,0.0,0 STARLINK-3550,1 52373U 22045AU  22177.58335648 -.00085394  00000-0 -60876-3 0  9995,2 52373  53.2131 150.7001 0003193   8.9407  41.6989 15.73246800 11639,6727.762,91.53,351.775,347.47900000000016,0.0
52373.0,STARLINK-3550,PAYLOAD,2022-06-26 22:00:00,15.73173913,0.0002975,53.2135,149.0495,10.2409,129.2655,0.00027327,0.00037867,0.0,0 STARLINK-3550,1 52373U 22045AU  22177.91667824  .00037867  00000-0  27327-3 0  9990,2 52373  53.2135 149.0495 0002975  10.2409 129.2655 15.73173913  1306,6727.97,91.535,351.836,347.833,0.0
52373.0,STARLINK-3550,PAYLOAD,2022-06-27 06:00:00,15.73160917,0.0003302,53.2135,147.4021,12.1452,216.2791,-3.3282e-05,-5.285e-05,0.0,0 STARLINK-3550,1 52373U 22045AU  22178.25001157 -.00005285  00000-0 -33282-4 0  9998,2 52373  53.2135 147.4021 0003302  12.1452 216.2791 15.73160917 11733,6728.007,91.535,352.093,347.65,0.0
52373.0,STARLINK-3550,PAYLOAD,2022-06-27 14:00:01,15.73291739,0.0003094,53.215,145.7498,9.6721,307.6406,-0.0021848,-0.00297936,0.0,0 STARLINK-3550,1 52373U 22045AU  22178.58334491 -.00297936  00000-0 -21848-2 0  9993,2 52373  53.2150 145.7498 0003094   9.6721 307.6406 15.73291739 11787,6727.634,91.528,351.58,347.417,0.0
52373.0,STARLINK-3550,PAYLOAD,2022-06-27 22:00:00,15.7322116,0.0003084,53.2142,144.1008,15.063,31.1763,-9.2781e-05,-0.00013638,0.0,0 STARLINK-3550,1 52373U 22045AU  22178.91667824 -.00013638  00000-0 -92781-4 0  9990,2 52373  53.2142 144.1008 0003084  15.0630  31.1763 15.73221160 11840,6727.835,91.532,351.775,347.625,0.0
52373.0,STARLINK-3550,PAYLOAD,2022-06-28 06:00:00,15.73151502,0.0003328,53.2142,142.4534,12.3664,122.8169,0.00027797,0.00038496,0.0,0 STARLINK-3550,1 52373U 22045AU  22179.25001157  .00038496  00000-0  27797-3 0  9990,2 52373  53.2142 142.4534 0003328  12.3664 122.8169 15.73151502 11898,6728.033,91.536,352.13800000000015,347.659,0.0
52373.0,STARLINK-3550,PAYLOAD,2022-06-28 14:00:01,15.73217651,0.0003156,53.2139,140.8027,10.549,213.5082,-0.00085778,-0.00119443,0.0,0 STARLINK-3550,1 52373U 22045AU  22179.58334491 -.00119443  00000-0 -85778-3 0  9993,2 52373  53.2139 140.8027 0003156  10.5490 213.5082 15.73217651  1304,6727.845,91.532,351.833,347.587,0.0
52373.0,STARLINK-3550,PAYLOAD,2022-06-28 22:00:00,15.73138021,0.0002984,53.2143,139.1526,10.0099,302.9451,0.00026236,0.00036267,0.0,0 STARLINK-3550,1 52373U 22045AU  22179.91667824  .00036267  00000-0  26236-3 0  9993,2 52373  53.2143 139.1526 0002984  10.0099 302.9451 15.73138021  1308,6728.071999999999,91.537,351.945,347.92900000000014,0.0
52373.0,STARLINK-3550,PAYLOAD,2022-06-29 14:00:01,15.73184989,0.0003145,53.2146,135.8545,10.239,120.4555,-1.9605e-05,-3.372e-05,0.0,0 STARLINK-3550,1 52373U 22045AU  22180.58334491 -.00003372  00000-0 -19605-4 0  9995,2 52373  53.2146 135.8545 0003145  10.2390 120.4555 15.73184989 12103,6727.938,91.534,351.9190000000001,347.68699999999984,0.0
52373.0,STARLINK-3550,PAYLOAD,2022-06-29 22:00:00,15.73199015,0.0003057,53.2151,134.2044,13.5462,206.0509,0.00019367,0.00026648,0.0,0 STARLINK-3550,1 52373U 22045AU  22180.91667824  .00026648  00000-0  19367-3 0  9994,2 52373  53.2151 134.2044 0003057  13.5462 206.0509 15.73199015  1300,6727.898,91.533,351.82,347.706,0.0
52373.0,STARLINK-3550,PAYLOAD,2022-06-30 14:00:01,15.73241178,0.0003166,53.2149,130.9059,13.2353,24.2564,-1.6305e-05,-2.916e-05,0.0,0 STARLINK-3550,1 52373U 22045AU  22181.58334491 -.00002916  00000-0 -16305-4 0  9993,2 52373  53.2149 130.9059 0003166  13.2353  24.2564 15.73241178  1302,6727.778,91.531,351.773,347.51300000000015,0.0
52373.0,STARLINK-3550,PAYLOAD,2022-06-30 22:00:00,15.73256211,0.0003045,53.2151,129.2561,13.1844,113.2873,-0.00038162,-0.00053982,0.0,0 STARLINK-3550,1 52373U 22045AU  22181.91667824 -.00053982  00000-0 -38162-3 0  9992,2 52373  53.2151 129.2561 0003045  13.1844 113.2873 15.73256211  1300,6727.735,91.53,351.649,347.551,0.0
52373.0,STARLINK-3550,PAYLOAD,2022-07-01 14:00:01,15.73230622,0.0003149,53.2152,125.9573,13.0328,291.3448,5.5288e-05,7.154e-05,0.0,0 STARLINK-3550,1 52373U 22045AU  22182.58334491  .00007154  00000-0  55288-4 0  9994,2 52373  53.2152 125.9573 0003149  13.0328 291.3448 15.73230622  1302,6727.808000000001,91.531,351.791,347.55400000000014,0.0
52373.0,STARLINK-3550,PAYLOAD,2022-07-01 22:00:00,15.73270108,0.0003166,53.2156,124.3076,17.2209,16.1188,-0.00066865,-0.00093735,0.0,0 STARLINK-3550,1 52373U 22045AU  22182.91667824 -.00093735  00000-0 -66865-3 0  9994,2 52373  53.2156 124.3076 0003166  17.2209  16.1188 15.73270108  1307,6727.695,91.529,351.69,347.43,0.0
52373.0,STARLINK-3550,PAYLOAD,2022-07-02 14:00:01,15.73250953,0.0003205,53.2154,121.0085,18.2161,193.0435,-0.0004251,-0.00060008,0.0,0 STARLINK-3550,1 52373U 22045AU  22183.58334491 -.00060008  00000-0 -42510-3 0  9997,2 52373  53.2154 121.0085 0003205  18.2161 193.0435 15.73250953  1307,6727.75,91.53,351.771,347.459,0.0
52373.0,STARLINK-3550,PAYLOAD,2022-07-02 22:00:00,15.73223225,0.0003101,53.2153,119.3592,17.6885,282.5607,9.9601e-05,0.00013394,0.0,0 STARLINK-3550,1 52373U 22045AU  22183.91667824  .00013394  00000-0  99601-4 0  9991,2 52373  53.2153 119.3592 0003101  17.6885 282.5607 15.73223225  1307,6727.829000000002,91.532,351.78,347.608,0.0
